IRIDIUM 33 DEB          
1 35911U 97051TU  17345.83098190  .00001160  00000-0  44470-3 0  9999
2 35911  86.2382 190.7694 0093584 282.6562  76.4179 14.27440884450113
